{
  "type": "FeatureCollection",
  "features": [
    {
      "type": "Feature",
      "properties": {
        "norad_id": 34765,
        "name": "IRIDIUM 33 DEB",
        "group": "iridium-33-debris",
        "lat": -83.27271313095092,
        "lon": -114.81995745325847,
        "alt_km": 758.2779075458984,
        "timestamp": "2025-12-13T18:50:04.815640+00:00",
        "meta_object_name": "IRIDIUM 33 DEB",
        "meta_object_id": "1997-051LJ",
        "meta_epoch": "2025-12-13T02:44:34.828800",
        "meta_mean_motion": 14.40467179,
        "meta_eccentricity": 0.00154785,
        "meta_inclination": 86.3397,
        "meta_ra_of_asc_node": 32.601,
        "meta_arg_of_pericenter": 210.1302,
        "meta_mean_anomaly": 179.3412,
        "meta_ephemeris_type": 0,
        "meta_classification_type": "U",
        "meta_norad_cat_id": 34765,
        "meta_element_set_no": 999,
        "meta_rev_at_epoch": 87619,
        "meta_bstar": 0.00062555047,
        "meta_mean_motion_dot": 2.01e-05,
        "meta_mean_motion_ddot": 0,
        "tle_line1": "1 34765U 97051LJ  25347.11429200  .00002010  00000+0  62555-3 0  9995",
        "tle_line2": "2 34765  86.3397  32.6010 0015478 210.1302 179.3412 14.40467179876190"
      },
      "geometry": {
        "type": "Point",
        "coordinates": [
          -114.81995745325847,
          -83.27271313095092
        ]
      }
    },
    {
      "type": "Feature",
      "properties": {
        "norad_id": 34833,
        "name": "IRIDIUM 33 DEB",
        "group": "iridium-33-debris",
        "lat": 54.0928463099855,
        "lon": 55.54091736627711,
        "alt_km": 701.1322218636915,
        "timestamp": "2025-12-13T18:50:04.815651+00:00",
        "meta_object_name": "IRIDIUM 33 DEB",
        "meta_object_id": "1997-051MH",
        "meta_epoch": "2025-12-13T05:39:36.676224",
        "meta_mean_motion": 14.52385927,
        "meta_eccentricity": 0.00217693,
        "meta_inclination": 86.3928,
        "meta_ra_of_asc_node": 50.7794,
        "meta_arg_of_pericenter": 97.0159,
        "meta_mean_anomaly": 329.1359,
        "meta_ephemeris_type": 0,
        "meta_classification_type": "U",
        "meta_norad_cat_id": 34833,
        "meta_element_set_no": 999,
        "meta_rev_at_epoch": 87722,
        "meta_bstar": 0.0012812124,
        "meta_mean_motion_dot": 5.253e-05,
        "meta_mean_motion_ddot": 0,
        "tle_line1": "1 34833U 97051MH  25347.23584116  .00005253  00000+0  12812-2 0  9994",
        "tle_line2": "2 34833  86.3928  50.7794 0021769  97.0159 329.1359 14.52385927877221"
      },
      "geometry": {
        "type": "Point",
        "coordinates": [
          55.54091736627711,
          54.0928463099855
        ]
      }
    },
    {
      "type": "Feature",
      "properties": {
        "norad_id": 34870,
        "name": "IRIDIUM 33 DEB",
        "group": "iridium-33-debris",
        "lat": 62.95519252283165,
        "lon": 126.34391702195671,
        "alt_km": 629.1592800722801,
        "timestamp": "2025-12-13T18:50:04.815662+00:00",
        "meta_object_name": "IRIDIUM 33 DEB",
        "meta_object_id": "1997-051MQ",
        "meta_epoch": "2025-12-12T05:10:32.154816",
        "meta_mean_motion": 14.76416829,
        "meta_eccentricity": 0.00161138,
        "meta_inclination": 86.3104,
        "meta_ra_of_asc_node": 314.324,
        "meta_arg_of_pericenter": 184.3674,
        "meta_mean_anomaly": 237.8107,
        "meta_ephemeris_type": 0,
        "meta_classification_type": "U",
        "meta_norad_cat_id": 34870,
        "meta_element_set_no": 999,
        "meta_rev_at_epoch": 88903,
        "meta_bstar": 0.0023634796,
        "meta_mean_motion_dot": 0.00016508,
        "meta_mean_motion_ddot": 0,
        "tle_line1": "1 34870U 97051MQ  25346.21564994  .00016508  00000+0  23635-2 0  9994",
        "tle_line2": "2 34870  86.3104 314.3240 0016113 184.3674 237.8107 14.76416829889032"
      },
      "geometry": {
        "type": "Point",
        "coordinates": [
          126.34391702195671,
          62.95519252283165
        ]
      }
    },
    {
      "type": "Feature",
      "properties": {
        "norad_id": 34896,
        "name": "IRIDIUM 33 DEB",
        "group": "iridium-33-debris",
        "lat": -79.25906581758744,
        "lon": -53.56827952318821,
        "alt_km": 674.1173356301297,
        "timestamp": "2025-12-13T18:50:04.815672+00:00",
        "meta_object_name": "IRIDIUM 33 DEB",
        "meta_object_id": "1997-051MY",
        "meta_epoch": "2025-12-12T17:48:22.643136",
        "meta_mean_motion": 14.66279209,
        "meta_eccentricity": 0.00240874,
        "meta_inclination": 86.3285,
        "meta_ra_of_asc_node": 326.6847,
        "meta_arg_of_pericenter": 215.1277,
        "meta_mean_anomaly": 323.4993,
        "meta_ephemeris_type": 0,
        "meta_classification_type": "U",
        "meta_norad_cat_id": 34896,
        "meta_element_set_no": 999,
        "meta_rev_at_epoch": 87619,
        "meta_bstar": 0.0014275546,
        "meta_mean_motion_dot": 7.927e-05,
        "meta_mean_motion_ddot": 0,
        "tle_line1": "1 34896U 97051MY  25346.74192874  .00007927  00000+0  14276-2 0  9990",
        "tle_line2": "2 34896  86.3285 326.6847 0024087 215.1277 323.4993 14.66279209876196"
      },
      "geometry": {
        "type": "Point",
        "coordinates": [
          -53.56827952318821,
          -79.25906581758744
        ]
      }
    },
    {
      "type": "Feature",
      "properties": {
        "norad_id": 34926,
        "name": "IRIDIUM 33 DEB",
        "group": "iridium-33-debris",
        "lat": -37.52939930499435,
        "lon": 4.810468517791719,
        "alt_km": 672.4832811279539,
        "timestamp": "2025-12-13T18:50:04.815683+00:00",
        "meta_object_name": "IRIDIUM 33 DEB",
        "meta_object_id": "1997-051NF",
        "meta_epoch": "2025-12-12T12:20:13.285824",
        "meta_mean_motion": 14.54404213,
        "meta_eccentricity": 0.00756259,
        "meta_inclination": 86.1328,
        "meta_ra_of_asc_node": 8.3778,
        "meta_arg_of_pericenter": 293.6501,
        "meta_mean_anomaly": 219.03,
        "meta_ephemeris_type": 0,
        "meta_classification_type": "U",
        "meta_norad_cat_id": 34926,
        "meta_element_set_no": 999,
        "meta_rev_at_epoch": 86453,
        "meta_bstar": 0.0080603055,
        "meta_mean_motion_dot": 0.0003576,
        "meta_mean_motion_ddot": 0,
        "tle_line1": "1 34926U 97051NF  25346.51404266  .00035760  00000+0  80603-2 0  9993",
        "tle_line2": "2 34926  86.1328   8.3778 0075625 293.6501 219.0300 14.54404213864537"
      },
      "geometry": {
        "type": "Point",
        "coordinates": [
          4.810468517791719,
          -37.52939930499435
        ]
      }
    },
    {
      "type": "Feature",
      "properties": {
        "norad_id": 34985,
        "name": "IRIDIUM 33 DEB",
        "group": "iridium-33-debris",
        "lat": 40.055404485830536,
        "lon": 59.49323958344955,
        "alt_km": 763.5772634525083,
        "timestamp": "2025-12-13T18:50:04.815693+00:00",
        "meta_object_name": "IRIDIUM 33 DEB",
        "meta_object_id": "1997-051NR",
        "meta_epoch": "2025-12-12T23:13:51.153888",
        "meta_mean_motion": 14.42012529,
        "meta_eccentricity": 0.00207583,
        "meta_inclination": 86.37,
        "meta_ra_of_asc_node": 56.7821,
        "meta_arg_of_pericenter": 219.0302,
        "meta_mean_anomaly": 263.5766,
        "meta_ephemeris_type": 0,
        "meta_classification_type": "U",
        "meta_norad_cat_id": 34985,
        "meta_element_set_no": 999,
        "meta_rev_at_epoch": 87178,
        "meta_bstar": 0.0010455492,
        "meta_mean_motion_dot": 3.457e-05,
        "meta_mean_motion_ddot": 0,
        "tle_line1": "1 34985U 97051NR  25346.96795317  .00003457  00000+0  10455-2 0  9993",
        "tle_line2": "2 34985  86.3700  56.7821 0020758 219.0302 263.5766 14.42012529871789"
      },
      "geometry": {
        "type": "Point",
        "coordinates": [
          59.49323958344955,
          40.055404485830536
        ]
      }
    },
    {
      "type": "Feature",
      "properties": {
        "norad_id": 35051,
        "name": "IRIDIUM 33 DEB",
        "group": "iridium-33-debris",
        "lat": -6.233560351279499,
        "lon": 8.004447969525602,
        "alt_km": 737.7023108714002,
        "timestamp": "2025-12-13T18:50:04.815703+00:00",
        "meta_object_name": "IRIDIUM 33 DEB",
        "meta_object_id": "1997-051NX",
        "meta_epoch": "2025-12-11T08:47:57.045408",
        "meta_mean_motion": 14.47588957,
        "meta_eccentricity": 0.00106566,
        "meta_inclination": 86.3243,
        "meta_ra_of_asc_node": 9.4603,
        "meta_arg_of_pericenter": 94.8899,
        "meta_mean_anomaly": 265.3522,
        "meta_ephemeris_type": 0,
        "meta_classification_type": "U",
        "meta_norad_cat_id": 35051,
        "meta_element_set_no": 999,
        "meta_rev_at_epoch": 86976,
        "meta_bstar": 0.001042299,
        "meta_mean_motion_dot": 3.858e-05,
        "meta_mean_motion_ddot": 0,
        "tle_line1": "1 35051U 97051NX  25345.36663247  .00003858  00000+0  10423-2 0  9997",
        "tle_line2": "2 35051  86.3243   9.4603 0010656  94.8899 265.3522 14.47588957869768"
      },
      "geometry": {
        "type": "Point",
        "coordinates": [
          8.004447969525602,
          -6.233560351279499
        ]
      }
    }
  ]
}